[{"OBJECT_NAME":"HORS 2","OBJECT_ID":"2023-091AG","EPOCH":"2026-03-09T22:11:34.810944","MEAN_MOTION":15.2928008,"ECCENTRICITY":0.00098173,"INCLINATION":97.5195,"RA_OF_ASC_NODE":134.7443,"ARG_OF_PERICENTER":79.3164,"MEAN_ANOMALY":280.9181,"EPHEMERIS_TYPE":0,"CLASSIFICATION_TYPE":"U","NORAD_CAT_ID":57196,"ELEMENT_SET_NO":999,"REV_AT_EPOCH":14934,"BSTAR":0.00059338338,"MEAN_MOTION_DOT":0.00016821,"MEAN_MOTION_DDOT":0},{"OBJECT_NAME":"STARLINK-36537","OBJECT_ID":"2026-012Z","EPOCH":"2026-03-09T00:53:21.037920","MEAN_MOTION":15.27583043,"ECCENTRICITY":0.00018682,"INCLINATION":42.9987,"RA_OF_ASC_NODE":317.9375,"ARG_OF_PERICENTER":254.2852,"MEAN_ANOMALY":105.7794,"EPHEMERIS_TYPE":0,"CLASSIFICATION_TYPE":"U","NORAD_CAT_ID":67516,"ELEMENT_SET_NO":999,"REV_AT_EPOCH":766,"BSTAR":0.0012267505,"MEAN_MOTION_DOT":0.00033653,"MEAN_MOTION_DDOT":0}]
